NORAD_CAT_ID,OBJECT_NAME,OBJECT_TYPE,EPOCH,MEAN_MOTION,ECCENTRICITY,INCLINATION,RA_OF_ASC_NODE,ARG_OF_PERICENTER,MEAN_ANOMALY,BSTAR,MEAN_MOTION_DOT,MEAN_MOTION_DDOT,TLE_LINE0,TLE_LINE1,TLE_LINE2,SEMIMAJOR_AXIS,PERIOD,APOGEE,PERIGEE,DECAYED
53436.0,STARLINK-4527,PAYLOAD,2024-03-10 21:15:26,15.08843133,0.0001438,53.2169,135.5348,93.5932,266.5225,-2.7578e-06,-3.32e-06,0.0,0 STARLINK-4527,1 53436U 22097BA  24070.88571983 -.00000332  00000-0 -27578-5 0  9997,2 53436  53.2169 135.5348 0001438  93.5932 266.5225 15.08843133 88768,6917.871,95.437,540.731,538.741,0.0
53436.0,STARLINK-4527,PAYLOAD,2024-03-11 13:09:17,15.08843934,0.000162,53.2178,132.5597,96.4177,263.7,0.00011385,1.525e-05,0.0,0 STARLINK-4527,1 53436U 22097BA  24071.54811810  .00001525  00000-0  11385-3 0  9997,2 53436  53.2178 132.5597 0001620  96.4177 263.7000 15.08843934 88867,6917.868,95.437,540.854,538.613,0.0
53436.0,STARLINK-4527,PAYLOAD,2024-03-12 03:27:46,15.08838801,0.0001576,53.2172,129.8849,93.0153,267.102,6.0577e-05,6.76e-06,0.0,0 STARLINK-4527,1 53436U 22097BA  24072.14428257  .00000676  00000-0  60577-4 0  9997,2 53436  53.2172 129.8849 0001576  93.0153 267.1020 15.08838801 88471,6917.884,95.438,540.839,538.659,0.0
53436.0,STARLINK-4527,PAYLOAD,2024-03-12 20:57:00,15.08838298,0.0001461,53.2171,126.6119,90.599,269.517,1.6375e-05,-2.7e-07,0.0,0 STARLINK-4527,1 53436U 22097BA  24072.87292499 -.00000027  00000-0  16375-4 0  9992,2 53436  53.2171 126.6119 0001461  90.5990 269.5170 15.08838298 89067,6917.886,95.438,540.761,538.74,0.0
53436.0,STARLINK-4527,PAYLOAD,2024-03-13 09:40:05,15.08841624,0.0001378,53.2166,124.2332,91.0739,269.0411,4.6006e-05,4.44e-06,0.0,0 STARLINK-4527,1 53436U 22097BA  24073.40284143  .00000444  00000-0  46006-4 0  9995,2 53436  53.2166 124.2332 0001378  91.0739 269.0411 15.08841624 88661,6917.875,95.437,540.694,538.787,0.0
53436.0,STARLINK-4527,PAYLOAD,2024-03-13 20:47:47,15.08846903,0.0001429,53.2167,122.1523,89.1398,270.9758,4.88e-06,-2.1e-06,0.0,0 STARLINK-4527,1 53436U 22097BA  24073.86651858 -.00000210  00000-0  48800-5 0  9993,2 53436  53.2167 122.1523 0001429  89.1398 270.9758 15.08846903 89219,6917.859,95.437,540.713,538.736,0.0
53436.0,STARLINK-4527,PAYLOAD,2024-03-14 06:20:06,15.08841001,0.0001485,53.2166,120.3686,86.6741,273.4421,7.5099e-05,9.07e-06,0.0,0 STARLINK-4527,1 53436U 22097BA  24074.26396029  .00000907  00000-0  75099-4 0  9995,2 53436  53.2166 120.3686 0001485  86.6741 273.4421 15.08841001 89279,6917.877,95.437,540.77,538.715,0.0
53436.0,STARLINK-4527,PAYLOAD,2024-03-14 12:41:38,15.08849234,0.0001534,53.2165,119.1779,94.0138,266.1029,8.1839e-05,1.015e-05,0.0,0 STARLINK-4527,1 53436U 22097BA  24074.52891376  .00001015  00000-0  81839-4 0  9999,2 53436  53.2165 119.1779 0001534  94.0138 266.1029 15.08849234 88835,6917.852,95.437,540.778,538.656,0.0
53436.0,STARLINK-4527,PAYLOAD,2024-03-15 09:21:40,15.08837218,0.0001626,53.2164,115.3103,102.322,257.7954,-4.5103e-05,-1.006e-05,0.0,0 STARLINK-4527,1 53436U 22097BA  24075.39004642 -.00001006  00000-0 -45103-4 0  9993,2 53436  53.2164 115.3103 0001626 102.3220 257.7954 15.08837218 88966,6917.889,95.438,540.879,538.629,0.0
53436.0,STARLINK-4527,PAYLOAD,2024-03-16 09:12:27,15.0883404,0.0001576,53.2166,110.8534,96.8643,263.2528,-3.8505e-05,-9.01e-06,0.0,0 STARLINK-4527,1 53436U 22097BA  24076.38365057 -.00000901  00000-0 -38505-4 0  9994,2 53436  53.2166 110.8534 0001576  96.8643 263.2528 15.08834040 89595,6917.899,95.438,540.854,538.673,0.0
53436.0,STARLINK-4527,PAYLOAD,2024-03-17 02:41:41,15.08834062,0.0001627,53.2173,107.582,110.7339,249.3827,5.9903e-05,6.65e-06,0.0,0 STARLINK-4527,1 53436U 22097BA  24077.11228889  .00000665  00000-0  59903-4 0  9997,2 53436  53.2173 107.5820 0001627 110.7339 249.3827 15.08834062 89220,6917.899,95.438,540.889,538.638,0.0
53436.0,STARLINK-4527,PAYLOAD,2024-03-17 09:03:14,15.08837047,0.000155,53.2169,106.3926,102.3364,257.7802,8.0829e-05,9.99e-06,0.0,0 STARLINK-4527,1 53436U 22097BA  24077.37724754  .00000999  00000-0  80829-4 0  9998,2 53436  53.2169 106.3926 0001550 102.3364 257.7802 15.08837047 89748,6917.889,95.438,540.827,538.682,0.0
53436.0,STARLINK-4527,PAYLOAD,2024-03-18 08:54:01,15.08840135,0.0001482,53.2169,101.9327,92.5556,267.5605,8.4379e-05,1.055e-05,0.0,0 STARLINK-4527,1 53436U 22097BA  24078.37084802  .00001055  00000-0  84379-4 0  9990,2 53436  53.2169 101.9327 0001482  92.5556 267.5605 15.08840135 89417,6917.88,95.438,540.77,538.72,0.0
53436.0,STARLINK-4527,PAYLOAD,2024-03-19 08:44:48,15.08842811,0.0001554,53.2173,97.4726,83.7438,276.3731,4.6124e-05,4.46e-06,0.0,0 STARLINK-4527,1 53436U 22097BA  24079.36444888  .00000446  00000-0  46124-4 0  9993,2 53436  53.2173  97.4726 0001554  83.7438 276.3731 15.08842811 90047,6917.872,95.437,540.812,538.662,0.0
53436.0,STARLINK-4527,PAYLOAD,2024-03-20 00:38:39,15.08844615,0.0001738,53.2175,94.4995,72.5793,287.5389,5.6006e-05,6.03e-06,0.0,0 STARLINK-4527,1 53436U 22097BA  24080.02684718  .00000603  00000-0  56006-4 0  9991,2 53436  53.2175  94.4995 0001738  72.5793 287.5389 15.08844615 89661,6917.866,95.437,540.934,538.529,0.0
53436.0,STARLINK-4527,PAYLOAD,2024-03-20 08:35:34,15.08848244,0.0001827,53.2177,93.0126,70.5709,289.5481,8.3145e-05,1.036e-05,0.0,0 STARLINK-4527,1 53436U 22097BA  24080.35804373  .00001036  00000-0  83145-4 0  9993,2 53436  53.2177  93.0126 0001827  70.5709 289.5481 15.08848244 90195,6917.855,95.437,540.984,538.456,0.0
53436.0,STARLINK-4527,PAYLOAD,2024-03-21 05:15:36,15.08837226,0.0001611,53.2175,89.1458,85.4776,274.64,-1.6481e-05,-5.5e-06,0.0,0 STARLINK-4527,1 53436U 22097BA  24081.21917293 -.00000550  00000-0 -16481-4 0  9996,2 53436  53.2175  89.1458 0001611  85.4776 274.6400 15.08837226 89841,6917.889,95.438,540.868,538.639,0.0
53436.0,STARLINK-4527,PAYLOAD,2024-03-21 06:50:59,15.0883815,0.0001554,53.2178,88.8472,89.6153,270.5018,-5.6984e-06,-3.79e-06,0.0,0 STARLINK-4527,1 53436U 22097BA  24081.28541173 -.00000379  00000-0 -56984-5 0  9995,2 53436  53.2178  88.8472 0001554  89.6153 270.5018 15.08838150 90330,6917.886,95.438,540.826,538.676,0.0
53436.0,STARLINK-4527,PAYLOAD,2024-03-21 17:58:41,15.08840438,0.0001541,53.2176,86.7645,93.707,266.4099,3.481e-05,2.66e-06,0.0,0 STARLINK-4527,1 53436U 22097BA  24081.74908920  .00000266  00000-0  34810-4 0  9999,2 53436  53.2176  86.7645 0001541  93.7070 266.4099 15.08840438 90400,6917.879,95.438,540.81,538.678,0.0
53436.0,STARLINK-4527,PAYLOAD,2024-03-22 05:06:22,15.08849888,0.0001536,53.2174,84.6822,102.362,257.7544,5.1888e-05,5.38e-06,0.0,0 STARLINK-4527,1 53436U 22097BA  24082.21276162  .00000538  00000-0  51888-4 0  9994,2 53436  53.2174  84.6822 0001536 102.3620 257.7544 15.08849888 89992,6917.85,95.437,540.778,538.653,0.0
53436.0,STARLINK-4527,PAYLOAD,2024-03-22 09:52:31,15.08855656,0.0001555,53.217,83.7892,103.2877,256.8289,9.3198e-05,1.196e-05,0.0,0 STARLINK-4527,1 53436U 22097BA  24082.41147606  .00001196  00000-0  93198-4 0  9997,2 53436  53.2170  83.7892 0001555 103.2877 256.8289 15.08855656 90505,6917.833,95.437,540.773,538.622,0.0
53436.0,STARLINK-4527,PAYLOAD,2024-03-23 04:57:11,15.08829533,0.0001576,53.217,80.2213,104.3675,255.7493,6.4431e-06,-1.85e-06,0.0,0 STARLINK-4527,1 53436U 22097BA  24083.20638041 -.00000185  00000-0  64431-5 0  9990,2 53436  53.2170  80.2213 0001576 104.3675 255.7493 15.08829533 90145,6917.912,95.438,540.868,538.687,0.0
53436.0,STARLINK-4527,PAYLOAD,2024-03-23 09:43:20,15.08831762,0.0001483,53.2171,79.3288,96.9086,263.2074,1.9605e-05,2.4e-07,0.0,0 STARLINK-4527,1 53436U 22097BA  24083.40510077  .00000024  00000-0  19605-4 0  9993,2 53436  53.2171  79.3288 0001483  96.9086 263.2074 15.08831762 90658,6917.906,95.438,540.796,538.745,0.0
53436.0,STARLINK-4527,PAYLOAD,2024-03-24 04:47:57,15.08847618,0.0001545,53.2159,75.7612,88.2336,271.8833,0.00019566,2.828e-05,0.0,0 STARLINK-4527,1 53436U 22097BA  24084.19997250  .00002828  00000-0  19566-3 0  9991,2 53436  53.2159  75.7612 0001545  88.2336 271.8833 15.08847618 90291,6917.857,95.437,540.791,538.653,0.0
53436.0,STARLINK-4527,PAYLOAD,2024-03-24 06:23:20,15.08852825,0.0001451,53.2154,75.4642,96.9247,263.191,0.00041463,6.319e-05,0.0,0 STARLINK-4527,1 53436U 22097BA  24084.26621188  .00006319  00000-0  41463-3 0  9993,2 53436  53.2154  75.4642 0001451  96.9247 263.1910 15.08852825 90789,6917.841,95.437,540.71,538.702,0.0
53436.0,STARLINK-4527,PAYLOAD,2024-03-25 04:38:45,15.08842304,0.0001546,53.2168,71.3007,99.3554,260.7613,0.00020355,2.953e-05,0.0,0 STARLINK-4527,1 53436U 22097BA  24085.19357898  .00002953  00000-0  20355-3 0  9997,2 53436  53.2168  71.3007 0001546  99.3554 260.7613 15.08842304 90444,6917.873,95.437,540.808,538.669,0.0
53436.0,STARLINK-4527,PAYLOAD,2024-03-25 15:46:27,15.08841961,0.0001326,53.2162,69.2209,82.7489,277.3653,0.0001901,2.739e-05,0.0,0 STARLINK-4527,1 53436U 22097BA  24085.65726092  .00002739  00000-0  19010-3 0  9992,2 53436  53.2162  69.2209 0001326  82.7489 277.3653 15.08841961 90993,6917.874,95.437,540.657,538.822,0.0
53436.0,STARLINK-4527,PAYLOAD,2024-03-26 04:29:33,15.08819997,0.0001946,53.2188,66.8403,86.9531,273.1684,-0.00017145,-3.014e-05,0.0,0 STARLINK-4527,1 53436U 22097BA  24086.18719337 -.00003014  00000-0 -17145-3 0  9991,2 53436  53.2188  66.8403 0001946  86.9531 273.1684 15.08819997 90590,6917.942,95.439,541.153,538.46,0.0
53436.0,STARLINK-4527,PAYLOAD,2024-03-26 07:40:19,15.08826915,0.0001612,53.2165,66.2447,81.9818,278.1357,-4.2888e-05,-9.7e-06,0.0,0 STARLINK-4527,1 53436U 22097BA  24086.31967197 -.00000970  00000-0 -42888-4 0  9996,2 53436  53.2165  66.2447 0001612  81.9818 278.1357 15.08826915 91096,6917.92,95.438,540.901,538.67,0.0
53436.0,STARLINK-4527,PAYLOAD,2024-03-26 15:37:15,15.08834806,0.000168,53.2177,64.7598,90.3285,269.79,0.00020514,2.978e-05,0.0,0 STARLINK-4527,1 53436U 22097BA  24086.65087223  .00002978  00000-0  20514-3 0  9995,2 53436  53.2177  64.7598 0001680  90.3285 269.7900 15.08834806 90666,6917.896,95.438,540.923,538.599,0.0
